OBJECT_NAME,OBJECT_ID,EPOCH,MEAN_MOTION,ECCENTRICITY,INCLINATION,RA_OF_ASC_NODE,ARG_OF_PERICENTER,MEAN_ANOMALY,EPHEMERIS_TYPE,CLASSIFICATION_TYPE,NORAD_CAT_ID,ELEMENT_SET_NO,REV_AT_EPOCH,BSTAR,MEAN_MOTION_DOT,MEAN_MOTION_DDOT
TEVEL2-6,2025-052F,2026-07-04T04:01:19.329312,15.35012398,.0004299,97.3882,81.5194,74.6482,285.5237,0,U,63215,999,7271,.73793881E-3,.25044E-3,0
TEVEL2-1,2025-052H,2026-07-02T10:36:17.123040,15.34387675,.000494,97.3860,79.3967,84.7539,275.4267,0,U,63217,999,7243,.64322E-3,.21382E-3,0
TEVEL2-3,2025-052J,2026-07-04T10:58:45.165216,15.34532305,.0004657,97.3857,81.4374,82.5997,277.5775,0,U,63218,999,7274,.8266232E-3,.27649E-3,0
TEVEL2-2,2025-052K,2026-07-04T11:07:41.842272,15.34484342,.00048476,97.3851,81.4223,81.4850,278.6942,0,U,63219,999,7274,.85302465E-3,.28496E-3,0
TEVEL2-9,2025-052AD,2026-07-03T14:45:18.109152,15.32416047,.0008273,97.3920,79.9121,87.9946,272.2243,0,U,63237,999,7254,.61259096E-3,.19142E-3,0
TEVEL2-7,2025-052AE,2026-07-04T10:37:25.443840,15.32144794,.00083419,97.3918,80.6472,86.1482,274.0714,0,U,63238,999,7266,.82678858E-3,.25666E-3,0
TEVEL2-8,2025-052AF,2026-07-04T10:49:32.892960,15.32129933,.00084036,97.3916,80.6319,86.5225,273.6978,0,U,63239,999,7266,.82944025E-3,.25737E-3,0
FORESAIL-1 PRIME,2025-276DS,2026-07-04T10:56:36.607200,15.18862876,.0003604,97.4190,258.4120,67.9939,292.1678,0,U,66778,999,3302,.31828083E-3,.6569E-4,0
